NUSAT-1 (FRESCO)        
1 41557U 16033B   22289.22624059  .00025514  00000+0  68471-3 0  9993
2 41557  97.3900  27.3674 0009182 307.0219 136.8824 15.37896072355927
BEESAT-4                
1 41619U 16040W   22288.70880696  .00024847  00000+0  73956-3 0  9995
2 41619  97.2024 336.2814 0009585  54.2881 305.9253 15.34657085339140
CAS-2T & KS-1Q          
1 41847U 16066G   22288.80020353  .00001606  00000+0  25054-3 0  9997
2 41847  98.5383 353.2814 0362586 209.6622 148.3563 14.38793821311657
NAYIF-1 (EO-88)         
1 42017U 17008BX  22288.73119072  .00031770  00000+0  82618-3 0  9997
2 42017  97.2552 353.3103 0004907 160.5676 199.5757 15.38851143315545
ZHUHAI-1 02 (CAS-4B)    
1 42759U 17034B   22289.17918936  .00008274  00000+0  47424-3 0  9993
2 42759  43.0182  26.8749 0010895 327.7494 105.6577 15.12831092294639
ZHUHAI-1 01 (CAS-4A)    
1 42761U 17034D   22289.14129103  .00008463  00000+0  48352-3 0  9994
2 42761  43.0193  25.7846 0011061 328.9080 100.1131 15.12920413294632
MAX VALIER SAT          
1 42778U 17036P   22288.83301207  .00014870  00000+0  52957-3 0  9991
2 42778  97.1929 325.8559 0008525 254.2341 105.7959 15.28998611295287
RADFXSAT (FOX-1B)       
1 43017U 17073E   22288.63832038  .00005836  00000+0  43274-3 0  9992
2 43017  97.6566 177.8769 0246365 153.6369 207.7630 14.82274082264915
FOX-1D (AO-92)          
1 43137U 18004AC  22289.18747274  .00016866  00000+0  55017-3 0  9991
2 43137  97.3581   3.3633 0006015 297.2326  62.8302 15.31845501264808
DIWATA-2B               
1 43678U 18084H   22289.07899641  .00002337  00000+0  23390-3 0  9990
2 43678  97.9886  63.8937 0008603 244.2086 115.8239 14.92394275215841
ES'HAIL 2               
1 43700U 18090A   22288.82063118  .00000144  00000+0  00000+0 0  9990
2 43700   0.0167 130.5117 0002818 109.9276 105.1239  1.00274207 14235
FOX-1CLIFF (AO-95)      
1 43770U 18099N   22288.86423838  .00005019  00000+0  44002-3 0  9999
2 43770  97.6081 352.0479 0012691 226.2904 133.7267 14.97026668211022
ITASAT 1                
1 43786U 18099AE  22288.78164727  .00003748  00000+0  32930-3 0  9990
2 43786  97.6099 352.9479 0014009 220.5414 139.4765 14.97086192211052
JY1SAT (JO-97)          
1 43803U 18099AX  22288.75519843  .00003992  00000+0  34480-3 0  9993
2 43803  97.6073 352.7200 0013412 219.9056 140.1182 14.97724202211070
UWE-4                   
1 43880U 18111E   22288.73403864  .00005093  00000+0  42637-3 0  9993
2 43880  97.6547 192.9179 0010524 275.5370  84.4653 14.98846135207718
NEXUS (FO-99)           
1 43937U 19003F   22289.07185492  .00020865  00000+0  63579-3 0  9991
2 43937  97.1206 317.8795 0021009  83.4323 276.9312 15.33769165208442
PSAT2 (NO-104)          
1 44354U 19036R   22289.02167762  .00100048 -42410-5  65019-3 0  9997
2 44354  28.5243  54.2884 0174584 263.6580  94.4114 15.56270551183356
JAISAT-1                
1 44419U 19038F   22288.85739331  .00015488  00000+0  73150-3 0  9998
2 44419  97.6508 260.1809 0020823  77.3275 283.0286 15.19326138181324
DUCHIFAT-3              
1 44854U 19089C   22288.87776535  .00007472  00000+0  56550-3 0  9995
2 44854  36.9663 106.0369 0006266 117.3170 242.8202 15.01938345156040
CAS-6 (TIANQIN 1)       
1 44881U 19093C   22289.18222281  .00001284  00000+0  16866-3 0  9990
2 44881  97.8854   6.6190 0015658 148.9292 211.2852 14.81872949152653
RS-44 & BREEZE-KM R/B   
1 44909U 19096E   22288.74826910  .00000014  00000+0  65670-5 0  9993
2 44909  82.5207 150.3790 0218129  38.6677 322.9815 12.79715900130899
ORBITAL FACTORY 2 (OF-2)
1 45113U 19071C   22289.12747907  .00056290  00000+0  89271-3 0  9993
2 45113  51.6352 182.9822 0008284 237.8744 122.1443 15.52790808152074
HUSKYSAT-1 (HO-107)     
1 45119U 19071J   22289.10602358  .00045341  00000+0  77390-3 0  9991
2 45119  51.6348 184.3049 0008268 236.1842 123.8361 15.50830403152043
BY70-2                  
1 45857U 20042B   22289.20588099  .00014710  00000+0  18822-2 0  9996
2 45857  97.9493   4.9623 0011275  85.3474 274.8977 14.81402749123328
SALSAT                  
1 46495U 20068K   22288.79132702  .00004928  00000+0  35022-3 0  9994
2 46495  97.7389 230.2146 0015241 226.0361 133.9609 15.05072915112284
BY70-3                  
1 46839U 20079N   22289.13635067  .00051515  00000+0  98028-3 0  9998
2 46839  97.1859 359.9866 0004271 242.7245 143.3242 15.48056088108875
RADFXSAT-2 (AO-109)     
1 47311U 21002C   22288.36293004  .00019989  00000+0  73559-3 0  9997
2 47311  60.6840 270.2683 0036045  53.7622 306.6790 15.27334411 96763
UVSQ-SAT                
1 47438U 21006AB  22288.71603877  .00010846  00000+0  54917-3 0  9993
2 47438  97.4229 345.2684 0010770 210.6547 149.4058 15.17123127 95503
DIY-1 (ARDUIQUBE)       
1 47963U 21022AH  22289.20550113  .00032170  00000+0  15926-2 0  9993
2 47963  97.5166 189.3627 0018438  77.6534 282.6762 15.17569522 85231
XW-3 (CAS-9)            
1 50466U 21131B   22289.19962797  .00000444  00000+0  15974-3 0  9992
2 50466  98.5728   6.3518 0005457 141.4013 218.7565 14.38549718 42279
TEVEL-3                 
1 50988U 22002E   22289.14907491  .00013805  00000+0  71855-3 0  9999
2 50988  97.4687 354.1532 0009208  14.1263  15.6434 15.16105970 41690
TEVEL-8                 
1 50989U 22002F   22289.15815221  .00013928  00000+0  72595-3 0  9998
2 50989  97.4717 354.1939 0009500  13.9575  14.5720 15.16052788 41698
TEVEL-5                 
1 50998U 22002Q   22289.13090198  .00013994  00000+0  71746-3 0  9994
2 50998  97.4680 354.3016 0010693   8.7211  21.9626 15.16623160 41706
TEVEL-6                 
1 50999U 22002R   22289.13009031  .00014000  00000+0  71765-3 0  9991
2 50999  97.4694 354.2986 0010562   9.4703  20.7085 15.16628318 41702
TEVEL-1                 
1 51013U 22002AF  22289.15323119  .00013855  00000+0  72169-3 0  9993
2 51013  97.4689 354.1291 0009301  13.4761  15.7314 15.16078111 41697
TEVEL-7                 
1 51062U 22002CG  22288.91198028  .00014159  00000+0  73813-3 0  9994
2 51062  97.4702 353.9347 0009394  13.6016 101.5893 15.16042175 41656
TEVEL-4                 
1 51063U 22002CH  22288.78571249  .00014195  00000+0  74032-3 0  9994
2 51063  97.4710 353.8065 0009492  13.6439 126.2044 15.16025968 41631
TEVEL-2                 
1 51069U 22002CP  22289.15078361  .00013887  00000+0  72288-3 0  9997
2 51069  97.4692 354.1395 0009181  14.1038  16.3982 15.16100443 41690
GREENCUBE               
1 53106U 22080B   22276.55284936 -.00000003  00000+0  00000+0 0  9990
2 53106  70.1655  48.8724 0008696 239.2659 120.7144  6.42557820  5260
YUZGU 9 (RS3S)          
1 53308U 98067TT  22288.88582772  .00091074  00000+0  11548-2 0  9999
2 53308  51.6380  96.4994 0004499 294.2821  65.7701 15.58677621 13478
YUZGU 7 (RS1S)          
1 53309U 98067TU  22288.94358417  .00092136  00000+0  11523-2 0  9997
2 53309  51.6376  96.1320 0004461 303.9937  56.0632 15.59036700 13439
YUZGU 11 (RS5S)         
1 53310U 98067TV  22288.88520083  .00092293  00000+0  11682-2 0  9992
2 53310  51.6380  96.4961 0004112 302.7600  57.2996 15.58719896 13458
YUZGU 12 (RS6S)         
1 53311U 98067TW  22288.93488391  .00093220  00000+0  11510-2 0  9995
2 53311  51.6378  96.0727 0004918 290.3155  69.7309 15.59367738 13487
TSIOLKOVSKY-RYAZAN 1 (*)
1 53312U 98067TX  22289.19814441  .00098527  00000+0  12289-2 0  9993
2 53312  51.6386  94.8357 0004516 309.9339  50.1257 15.59077505 13461
TSIOLKOVSKY-RYAZAN 2 (*)
1 53313U 98067TY  22288.93957801  .00093993  00000+0  11759-2 0  9996
2 53313  51.6385  96.1082 0003984 304.6591  55.4026 15.59021570 13475
YUZGU 10 (RS4S)         
1 53321U 98067TZ  22288.88413586  .00092529  00000+0  11647-2 0  9996
2 53321  51.6379  96.4884 0004454 298.8148  61.2397 15.58864416 13463
RS29S (SXC3-2110 CYCLO*)
1 53373U 22096D   22289.10693993  .00018477  00000+0  72338-3 0  9995
2 53373  97.4287 190.0829 0001696  44.6791  61.7514 15.25858909 10335
RS32S (SXC3-212 MONITO*)
1 53374U 22096E   22289.10221890  .00018564  00000+0  72423-3 0  9991
2 53374  97.4282 190.0891 0001233  50.1172  57.3983 15.25974581 10338
RS34S (SXC3-218 KUZBAS*)
1 53375U 22096F   22289.10411419  .00015072  00000+0  59248-3 0  9991
2 53375  97.4287 190.0867 0001127  43.7610  61.9246 15.25768298 10333
RS23S (SXC3-21 UTMN)    
1 53376U 22096G   22289.10287571  .00014850  00000+0  58313-3 0  9997
2 53376  97.4285 190.0890 0001144  44.7139  61.5849 15.25805882 10330
RS28S (SXC3-214 MIET-A*)
1 53377U 22096H   22289.10203358  .00015120  00000+0  59341-3 0  9992
2 53377  97.4286 190.0906 0000996  43.1656  65.3825 15.25820139 10339
RS26S (KAI-1)           
1 53378U 22096J   22289.10218742  .00013203  00000+0  52013-3 0  9995
2 53378  97.4286 190.0900 0000700  54.5844  53.1666 15.25727192 10335
RS19S (SXC3-219 ISOI)   
1 53381U 22096M   22289.15305200  .00015697  00000+0  60719-3 0  9991
2 53381  97.4283 190.1859 0003318 180.2096 317.3037 15.26292276 10343
RS21S (CUBESX-HSE-2)    
1 53383U 22096P   22289.08083104  .00016105  00000+0  62242-3 0  9999
2 53383  97.4292 190.1194 0003712 181.8909 290.6706 15.26313675 10337
RS30S (SXC3-217 SIREN)  
1 53384U 22096Q   22289.21887374  .00014574  00000+0  56423-3 0  9998
2 53384  97.4288 190.2566 0003539 181.1136 330.0646 15.26279015 10352
RS20S (GEOSCAN-EDELVEIS)
1 53385U 22096R   22289.20840539  .00019359  00000+0  73680-3 0  9990
2 53385  97.4289 190.2744 0003874 182.6024 335.8892 15.26783710 10387
RS33S (SXC3-215 VIZARD) 
1 53386U 22096S   22289.12526222  .00023359  00000+0  87440-3 0  9996
2 53386  97.4285 190.2233 0004385 186.9683 311.4166 15.27293496 10363
